MTI                     
1 26102U 00014A   22098.32040179  .00241901  00000+0  99592-3 0  9996
2 26102  97.4577  28.3473 0002417 149.0792 211.0621 15.85322757227543
TITAN 4B R/B            
1 26474U 00047B   22098.27335655  .00001781  00000+0  16169-3 0  9993
2 26474  67.9938  58.8874 0057034 196.9183 163.0060 14.96591537177947
ENVISAT                 
1 27386U 02009A   22098.54022788  .00000247  00000+0  95012-4 0  9997
2 27386  98.1791  82.9454 0001375  89.2660  19.9203 14.38099369 53411
IDEFIX & ARIANE 42P R/B 
1 27422U 02021B   22098.44784356  .00000263  00000+0  11968-3 0  9992
2 27422  98.4430  46.5726 0013385  83.3959 276.8747 14.29383611 39454
AQUA                    
1 27424U 02022A   22098.46723733  .00000778  00000+0  18252-3 0  9993
2 27424  98.2420  41.0492 0001988  85.4547  27.8049 14.57201572 59991
CZ-4B R/B               
1 27432U 02024C   22098.56483999  .00000029  00000+0  38617-4 0  9999
2 27432  99.0690 122.6617 0051349 113.7112   1.4201 14.14131167 26944
MIDORI II (ADEOS-II)    
1 27597U 02056A   22098.45731793  .00000257  00000+0  12213-3 0  9998
2 27597  98.6006  43.4057 0000799 141.5407 218.5831 14.27579757  5985
H-2A R/B                
1 27601U 02056E   22098.55465351  .00000170  00000+0  75624-4 0  9999
2 27601  98.1796 109.1716 0073298 109.5510   1.3192 14.32046418  9179
CZ-4B R/B               
1 28059U 03049C   22098.53603235  .00000318  00000+0  88124-4 0  9996
2 28059  98.5155  34.2636 0048824 281.3452  78.2260 14.52744501978668
CZ-2C R/B               
1 28222U 04012C   22098.54427795  .00004740  00000+0  27382-3 0  9996
2 28222  97.7672  78.1467 0043736 292.8396 181.7039 15.12008972985669
SL-16 R/B               
1 28353U 04021B   22098.40302055  .00000092  00000+0  73172-4 0  9992
2 28353  71.0029 355.2056 0003485  34.6123 325.5225 14.14256857920443
CZ-4B R/B               
1 28415U 04035C   22098.57800145  .00002590  00000+0  16925-3 0  9994
2 28415  97.5257 140.5309 0048945 258.3557 101.2175 15.07727036963063
CZ-2C R/B               
1 28480U 04046B   22098.59822425  .00000192  00000+0  87267-4 0  9999
2 28480  98.0620  91.8767 0142991  69.4000  41.0623 14.25804290904488
ARIANE 5 R/B            
1 28499U 04049H   22098.57263328  .00000615  00000+0  82862-4 0  9997
2 28499  98.0873 214.7312 0090547 300.6337  69.2926 14.80307517933742
CZ-2D R/B               
1 28738U 05024B   22098.52943603  .00004060  00000+0  23110-3 0  9991
2 28738  97.3549 109.0775 0013131  65.0816 295.1779 15.13308612921171
SUZAKU (ASTRO-EII)      
1 28773U 05025A   22098.53623956  .00008944  00000+0  39769-3 0  9990
2 28773  31.3813  38.7685 0004140  11.4816 348.5926 15.20213015924377
ALOS (DAICHI)           
1 28931U 06002A   22098.48552452  .00001199  00000+0  24225-3 0  9994
2 28931  97.9276  65.9896 0001387 107.5621 252.5723 14.63072843864191
H-2A R/B                
1 28932U 06002B   22098.57564202  .00002779  00000+0  25389-3 0  9998
2 28932  98.3000 137.2308 0086178 321.7722  37.7405 14.93187114879610
AKARI (ASTRO-F)         
1 28939U 06005A   22098.41883497  .00030629  00000+0  63133-3 0  9995
2 28939  98.2021 162.8047 0076579 164.6398 195.7197 15.42674330882275
RESURS-DK 1             
1 29228U 06021A   22098.01214152  .00001422  00000+0  11258-3 0  9997
2 29228  69.9352 308.5130 0005270 206.4363 153.6530 15.03040416871796
GENESIS 1               
1 29252U 06029A   22098.54127153  .00004666  00000+0  21517-3 0  9996
2 29252  64.5224 300.5774 0060166 272.0644  87.3590 15.19994382868347
CZ-4B R/B               
1 29507U 06046C   22098.57273668  .00003065  00000+0  23593-3 0  9992
2 29507  97.7297 128.9308 0049298 101.8814 258.7944 15.01463131844383
CZ-2C R/B               
1 31114U 07010B   22098.48645897  .00000153  00000+0  89575-4 0  9996
2 31114  98.2368 276.4741 0060489 141.2444 219.3096 14.19411420776632
COSMO-SKYMED 1          
1 31598U 07023A   22098.52837738  .00000339  00000+0  49109-4 0  9993
2 31598  97.8876 283.1965 0001479  98.5070 261.6350 14.82164398802602
GENESIS 2               
1 31789U 07028A   22098.10300533  .00005266  00000+0  25528-3 0  9994
2 31789  64.4979 345.0164 0040491 327.7567  32.1081 15.18946042815219
COSMOS 2428             
1 31792U 07029A   22098.38237269  .00000382  00000+0  23230-3 0  9996
2 31792  70.9398 326.7574 0007976 178.2061 181.9089 14.12506380761952
SL-16 R/B               
1 31793U 07029B   22098.58846233  .00000073  00000+0  63190-4 0  9993
2 31793  70.9758 299.6324 0002330 280.2878 139.8814 14.14472051762984
KORONAS-FOTON           
1 33504U 09003A   22098.54381685  .00003556  00000+0  17886-3 0  9999
2 33504  82.4383 285.6243 0019289 149.7249 210.5103 15.16763945727364
H-2A R/B                
1 38341U 12025E   22098.58367800  .00001230  00000+0  14973-3 0  9999
2 38341  98.5141 309.1833 0053786 271.5227  87.9824 14.84541624535281
CUSAT 2 & FALCON 9 R/B  
1 39271U 13055G   22098.54000722  .00019003  00000+0  42510-3 0  9994
2 39271  80.9584 271.9207 0541112 331.4223  25.8256 14.59596086446564
CZ-2C R/B               
1 39364U 13059B   22098.41125527  .00010287  00000+0  34537-3 0  9993
2 39364  97.1687 154.1372 0043171 220.6641 139.1374 15.30129573469491
SL-4 R/B                
1 39679U 14021B   22098.48038391  .00004663  00000+0  23256-3 0  9998
2 39679  51.6135 281.7193 0166954  75.1702 286.7696 15.08182582438550
ALOS-2                  
1 39766U 14029A   22098.47251364 -.00000273  00000+0 -29640-4 0  9998
2 39766  97.9191 196.6059 0001649  94.3787 265.7612 14.79469438425288
CZ-2C R/B               
1 40306U 14071B   22098.43773201  .00041985  00000+0  58347-3 0  9990
2 40306  97.4137  69.0313 0008392 270.2585  89.7709 15.56851537415982
SL-27 R/B               
1 40354U 14084B   22098.54182242  .00008285  00000+0  18492-3 0  9991
2 40354  74.7364 100.5800 0036522 313.4205  46.3969 15.42914102409817
YAOGAN 29               
1 41038U 15069A   22098.54568468  .00000536  00000+0  76844-4 0  9990
2 41038  98.0560  98.4183 0000636  74.1927 285.9350 14.80616526343948
ASTRO-H (HITOMI)        
1 41337U 16012A   22098.49516629  .00001630  00000+0  12379-3 0  9995
2 41337  31.0041 143.7150 0012163 115.8668 244.3222 14.99201485336619
HXMT (HUIYAN)           
1 42758U 17034A   22098.25169881  .00004811  00000+0  30393-3 0  9996
2 42758  43.0193  14.2976 0008762 209.2938 286.8553 15.10002844265569
CZ-2C R/B               
1 43521U 18054D   22098.38792707  .00004031  00000+0  21048-3 0  9992
2 43521  35.1535  69.5397 0080176 184.2148 175.7897 15.12612980209064
AEOLUS                  
1 43600U 18066A   22098.56076139  .00118135  00000+0  45433-3 0  9992
2 43600  96.7096 105.6627 0007830  86.4728 273.7440 15.87001876210049
SAOCOM 1A               
1 43641U 18076A   22098.46926843  .00000088  00000+0  17669-4 0  9991
2 43641  97.8888 286.1659 0001466  73.9605 286.1499 14.82161297189369
SAOCOM 1B               
1 46265U 20059A   22098.50046889  .00000533  00000+0  73458-4 0  9991
2 46265  97.8893 285.2682 0001490  85.4971 274.6415 14.82162376 86766
TIANHE                  
1 48274U 21035A   22097.81670194  .00030828  00000+0  31989-3 0  9995
2 48274  41.4714 287.2289 0008225 323.0971  52.1799 15.63938989 53774
